DMSP 5D-3 F16 (USA 172) 
1 28054U 03048A   26186.42269895  .00000040  00000+0  44662-4 0  9991
2 28054  98.9886 210.3712 0008210  95.0172   7.2314 14.14484754172065
METEOSAT-9 (MSG-2)      
1 28912U 05049B   26185.73031617  .00000133  00000+0  00000+0 0  9995
2 28912   9.3983  53.9918 0002388   0.4955 176.8994  1.00268028  7171
DMSP 5D-3 F17 (USA 191) 
1 29522U 06050A   26186.48390475  .00000075  00000+0  61046-4 0  9996
2 29522  98.7381 192.6797 0010303  10.6814 349.4577 14.14995663 15010
FENGYUN 3A              
1 32958U 08026A   26186.30254631  .00000121  00000+0  77931-4 0  9994
2 32958  98.6885 126.7971 0009875  77.2748 282.9532 14.19575181937978
GOES 14                 
1 35491U 09033A   26186.53137925 -.00000332  00000+0  00000+0 0  9992
2 35491   1.7341  82.8289 0002101  31.1570 131.8513  1.00103643  6778
DMSP 5D-3 F18 (USA 210) 
1 35951U 09057A   26186.59788986  .00000275  00000+0  16547-3 0  9996
2 35951  98.9047 167.3277 0010661 192.8844 167.2058 14.14907412862193
EWS-G2 (GOES 15)        
1 36411U 10008A   26186.51801439  .00000034  00000+0  00000+0 0  9993
2 36411   1.3248  82.5972 0005350  48.9751  41.8629  1.00268286 59822
COMS 1                  
1 36744U 10032A   26185.86445056 -.00000135  00000+0  00000+0 0  9998
2 36744   4.8475  75.1472 0011640  14.1480 147.8491  0.99169370 51262
FENGYUN 3B              
1 37214U 10059A   26186.64129045  .00000563  00000+0  31422-3 0  9994
2 37214  98.9605 232.7334 0022846 132.5681  37.5405 14.14847618810038
SUOMI NPP               
1 37849U 11061A   26186.59641194  .00000097  00000+0  67039-4 0  9996
2 37849  98.7955 127.3470 0000591 289.1282  70.9830 14.19521299761056
METEOSAT-10 (MSG-3)     
1 38552U 12035B   26186.29157634  .00000005  00000+0  00000+0 0  9997
2 38552   4.7115  60.9295 0001423  17.8763 309.5534  1.00269660 51034
METOP-B                 
1 38771U 12049A   26186.35048295  .00000145  00000+0  85958-4 0  9999
2 38771  98.6494 237.4865 0001187 314.6634  45.4447 14.21444651715842
INSAT-3D                
1 39216U 13038B   26183.85162303 -.00000329  00000+0  00000+0 0  9997
2 39216   1.9642  82.3574 0001056  15.1644 259.4386  1.00268722 47238
FENGYUN 3C              
1 39260U 13052A   26186.63091449  .00000076  00000+0  59849-4 0  9991
2 39260  98.4998 159.6597 0014146 334.9488  25.0999 14.15759195661178
METEOR-M 2              
1 40069U 14037A   26186.65814679 -.00000101  00000+0 -26857-4 0  9998
2 40069  98.5128 161.7432 0005768 356.0782   4.0349 14.21466141621947
HIMAWARI-8              
1 40267U 14060A   26186.59698866 -.00000262  00000+0  00000+0 0  9999
2 40267   0.0175  34.0764 0000944  84.3005 160.8038  1.00270538 42946
FENGYUN 2G              
1 40367U 14090A   26186.59640071 -.00000289  00000+0  00000+0 0  9997
2 40367   5.6825  72.5975 0003703 150.4392  14.7589  1.00265165 42185
METEOSAT-11 (MSG-4)     
1 40732U 15034A   26186.57850515  .00000074  00000+0  00000+0 0  9997
2 40732   3.2464  70.9958 0002249 350.1849  79.9413  1.00268848  7403
ELEKTRO-L 2             
1 41105U 15074A   26185.93224534 -.00000107  00000+0  00000+0 0  9999
2 41105   6.7363  70.3059 0000617 256.6108 277.0927  1.00273703 38686
SENTINEL-3A             
1 41335U 16011A   26186.38020816  .00000159  00000+0  83580-4 0  9998
2 41335  98.6241 253.5019 0001424  93.3626 266.7718 14.26738070540658
INSAT-3DR               
1 41752U 16054A   26186.59137403 -.00000063  00000+0  00000+0 0  9998
2 41752   0.0452  89.4624 0010312 181.7428 299.2673  1.00272516 36004
HIMAWARI-9              
1 41836U 16064A   26186.18169565 -.00000261  00000+0  00000+0 0  9991
2 41836   0.0208 278.6772 0001336 226.6727 343.9982  1.00273443 35390
GOES 16                 
1 41866U 16071A   26186.55855330 -.00000077  00000+0  00000+0 0  9990
2 41866   0.3831  85.6725 0000512  53.9412 240.3346  1.00271784 35287
FENGYUN 4A              
1 41882U 16077A   26186.66087916 -.00000344  00000+0  00000+0 0  9990
2 41882   2.3666  80.0843 0008007 157.8053  47.4517  1.00274232 35114
CYGFM05                 
1 41884U 16078A   26186.25993499  .00035736  00000+0  46812-3 0  9997
2 41884  34.9562 140.8434 0007805 306.2886  53.7117 15.57493813531574
CYGFM04                 
1 41885U 16078B   26186.17310821  .00048320  00000+0  51978-3 0  9993
2 41885  34.9320 108.1857 0006085 341.3726  18.6776 15.62590933531810
CYGFM02                 
1 41886U 16078C   26186.20216586  .00057140  00000+0  54085-3 0  9993
2 41886  34.9401 101.9852 0006919 345.4932  14.5595 15.65774539531999
CYGFM01                 
1 41887U 16078D   26186.24061343  .00037427  00000+0  47730-3 0  9992
2 41887  34.9394 141.8798 0007729 300.8681  59.1284 15.58197350531520
CYGFM08                 
1 41888U 16078E   26186.23243052  .00043264  00000+0  49493-3 0  9995
2 41888  34.9426 121.0275 0008177 331.2592  28.7682 15.61010948531798
CYGFM07                 
1 41890U 16078G   26186.19042992  .00044677  00000+0  50921-3 0  9990
2 41890  34.9443 109.6333 0006444 342.6067  17.4437 15.61116716531811
CYGFM03                 
1 41891U 16078H   26186.22548500  .00044161  00000+0  50354-3 0  9999
2 41891  34.9397 111.3315 0006439 329.4859  30.5491 15.61107669531796
FENGYUN 3D              
1 43010U 17072A   26186.61173047  .00000097  00000+0  67845-4 0  9996
2 43010  99.0140 161.3677 0001993  32.1236 328.0061 14.19743309447605
NOAA 20 (JPSS-1)        
1 43013U 17073A   26186.39825913  .00000076  00000+0  57248-4 0  9994
2 43013  98.7772 125.6992 0000994 132.4642 227.6619 14.19515232447057
GOES 17                 
1 43226U 18022A   26186.48768090 -.00000169  00000+0  00000+0 0  9990
2 43226   0.9807  85.4269 0000699  58.1013 226.0203  1.00270863 30600
SENTINEL-3B             
1 43437U 18039A   26186.21308141  .00000164  00000+0  85603-4 0  9991
2 43437  98.6240 253.4861 0000921 117.0798 243.0476 14.26740289426692
FENGYUN 2H              
1 43491U 18050A   26186.65399078 -.00000116  00000+0  00000+0 0  9992
2 43491   3.0760  78.8635 0001903 122.1926  37.2943  1.00268984 29627
METOP-C                 
1 43689U 18087A   26186.57990269  .00000121  00000+0  74921-4 0  9994
2 43689  98.6635 245.8465 0002193 106.0466 254.0953 14.21517309397449
GEO-KOMPSAT-2A          
1 43823U 18100A   26186.53077257 -.00000330  00000+0  00000+0 0  9994
2 43823   0.0414 158.2437 0002446 298.9903 145.6339  1.00272362 27819
METEOR-M2 2             
1 44387U 19038A   26186.57888846  .00000324  00000+0  15998-3 0  9997
2 44387  98.9155 174.1364 0001243  20.5206 339.6022 14.24371708363910
ARKTIKA-M 1             
1 47719U 21016A   26180.95192977 -.00000281  00000+0  00000+0 0  9994
2 47719  63.2520  55.7907 7292817 269.9910  14.5481  2.00617895 39040
FENGYUN 3E              
1 49008U 21062A   26186.59355624 -.00000249  00000+0 -96466-4 0  9995
2 49008  98.7495 189.7965 0002618  55.2654 304.8768 14.19904802259194
GOES 18                 
1 51850U 22021A   26186.51850380  .00000110  00000+0  00000+0 0  9999
2 51850   0.0358 224.8795 0000573 296.6336 171.6564  1.00272074  6777
NOAA 21 (JPSS-2)        
1 54234U 22150A   26186.36023005  .00000102  00000+0  69021-4 0  9994
2 54234  98.7060 124.8441 0002564 121.6089 238.5337 14.19540000189124
METEOSAT-12 (MTG-I1)    
1 54743U 22170C   26186.36279293  .00000007  00000+0  00000+0 0  9994
2 54743   0.7580  25.7060 0003482  76.0889 311.9731  1.00276450 13161
TIANMU-1 03             
1 55973U 23039A   26186.67253060  .00015444  00000+0  29875-3 0  9999
2 55973  97.5245   1.3723 0003346  50.9394 309.2153 15.47841910183695
TIANMU-1 04             
1 55974U 23039B   26186.59014366  .00016596  00000+0  31409-3 0  9990
2 55974  97.5179   0.4422 0003854  46.1919 313.9649 15.48455479183696
TIANMU-1 05             
1 55975U 23039C   26186.65419620  .00015513  00000+0  30087-3 0  9999
2 55975  97.5226   0.9616 0003633  70.8519 289.3124 15.47764292183672
TIANMU-1 06             
1 55976U 23039D   26186.59469410  .00016646  00000+0  31614-3 0  9990
2 55976  97.5232   1.5542 0003834  64.9622 295.2026 15.48354195183694
FENGYUN 3G              
1 56232U 23055A   26186.57247670  .00024598  00000+0  38565-3 0  9991
2 56232  49.9918 251.2338 0007271  13.5695 346.5467 15.53481035182865
METEOR-M2 3             
1 57166U 23091A   26186.64770779  .00000004  00000+0  20360-4 0  9998
2 57166  98.6078 241.2475 0005085 111.6390 248.5331 14.24048407157147
TIANMU-1 07             
1 57399U 23101A   26186.60992468  .00007654  00000+0  26576-3 0  9997
2 57399  97.2578 236.8564 0004209  84.3079 275.8642 15.30035513164464
TIANMU-1 08             
1 57400U 23101B   26186.57651610  .00007254  00000+0  25193-3 0  9997
2 57400  97.2566 236.5917 0005332  71.1172 289.0647 15.30039781164451
TIANMU-1 09             
1 57401U 23101C   26186.62492311  .00007780  00000+0  26970-3 0  9993
2 57401  97.2525 236.0454 0004791  86.0006 274.1782 15.30078932164464
TIANMU-1 10             
1 57402U 23101D   26186.59290314  .00007352  00000+0  25517-3 0  9990
2 57402  97.2604 237.0835 0006262  79.5273 280.6674 15.30051913164456
FENGYUN 3F              
1 57490U 23111A   26186.64750014  .00000065  00000+0  51155-4 0  9994
2 57490  98.6829 256.3117 0001453  81.0247 279.1094 14.19942372151482
ARKTIKA-M 2             
1 58584U 23198A   26180.72239164  .00000148  00000+0  00000+0 0  9995
2 58584  63.2199 152.9641 6905877 267.3845  18.7575  2.00610643 18573
TIANMU-1 11             
1 58645U 23205A   26186.59745823  .00006838  00000+0  25910-3 0  9990
2 58645  97.3443 207.8666 0006965 305.3511  54.7077 15.27195043140337
TIANMU-1 12             
1 58646U 23205B   26186.56878847  .00006310  00000+0  24062-3 0  9993
2 58646  97.3431 207.5893 0005466 279.6233  80.4388 15.27023525140317
TIANMU-1 13             
1 58647U 23205C   26186.60218387  .00007138  00000+0  27187-3 0  9996
2 58647  97.3459 207.8987 0005048 255.1704 104.8976 15.27016934140313
TIANMU-1 14             
1 58648U 23205D   26186.58685220  .00006748  00000+0  25679-3 0  9998
2 58648  97.3395 207.0510 0005797 262.9904  97.0675 15.27061240140315
